idElset,classificationMarking,satNo,epoch,meanMotion,idOnOrbit,uct,eccentricity,inclination,raan,argOfPerigee,meanAnomaly,bStar,meanMotionDot,meanMotionDDot,semiMajorAxis,period,apogee,perigee,origObjectId,line1,line2,createdAt,createdBy,source,dataMode,ephemType,origNetwork,elset
25e070ee-c52a-4f22-a573-df2b3387330f,U//PR-EXO-ELSETS,40880,2025-08-09T19:47:21.183127Z,1.002649180709951,40880,False,0.0003072665348729632,1.109035223521916,86.91226460760318,49.87597819906695,201.0941295290781,0.0,0.0,0.0,42166.65917279888,1436.195259223541,42179.61557605007,42153.70276954768,40880,1 40880U 15041A   25221.82455073 +.00000000 +00000+0 +00000+0 2 99996,2 40880   1.1090  86.9123 0003072  49.8760 201.0941  1.00264918000006,2025-08-09T22:09:30.399Z,system.exo,EXO,REAL,2,OPS1,"{'NORAD_ID': 40880, 'classification': 'U', 'COSPAR_ID': '15041A', 'BC': 0.0, 'n_ddot': 0.0, 'B_star': 0.0, 'ephemeris_type': 2, 'elset_num': 9999, 'inclination': 1.109, 'RAAN': 86.9123, 'eccentricity': 0.0003072, 'perigee': 49.876, 'mean_anomaly': 201.0941, 'mean_motion': 1.00264918, 'rev_num': 0, 'line1': '1 40880U 15041A   25221.82455073 +.00000000 +00000+0 +00000+0 2 99996', 'line2': '2 40880   1.1090  86.9123 0003072  49.8760 201.0941  1.00264918000006', 'epoch': datetime.datetime(2025, 8, 9, 19, 47, 21, 183072)}"
f6773e75-3d29-4f58-9c3b-06b4d4475474,U//PR-EXO-ELSETS,58990,2025-08-09T17:32:31.222582Z,1.002673680940449,58990,False,0.0001319621666329988,0.02299189079227849,267.0450118479863,236.263444226667,160.3641911775087,0.0,0.0,0.0,42165.97227795231,1436.160165936902,42171.53659101229,42160.40796489232,58990,1 58990U 24033A   25221.73091693 +.00000000 +00000+0 +00000+0 2 99992,2 58990   0.0230 267.0450 0001319 236.2634 160.3642  1.00267368000007,2025-08-09T19:18:31.030Z,system.exo,EXO,REAL,2,OPS1,"{'NORAD_ID': 58990, 'classification': 'U', 'COSPAR_ID': '24033A', 'BC': 0.0, 'n_ddot': 0.0, 'B_star': 0.0, 'ephemeris_type': 2, 'elset_num': 9999, 'inclination': 0.023, 'RAAN': 267.045, 'eccentricity': 0.0001319, 'perigee': 236.2634, 'mean_anomaly': 160.3642, 'mean_motion': 1.00267368, 'rev_num': 0, 'line1': '1 58990U 24033A   25221.73091693 +.00000000 +00000+0 +00000+0 2 99992', 'line2': '2 58990   0.0230 267.0450 0001319 236.2634 160.3642  1.00267368000007', 'epoch': datetime.datetime(2025, 8, 9, 17, 32, 31, 222752)}"
ab981fdb-38f8-4e59-997e-ec6ea1b7cc41,U//PR-EXO-ELSETS,43683,2025-08-09T18:28:47.532050Z,1.002719995570372,43683,False,0.000450702176341106,2.794335280378256,106.5778992013892,358.1213335280177,270.9683816436128,0.0,0.0,0.0,42164.67386533855,1436.093831140659,42183.67757561438,42145.67015506273,43683,1 43683U 18085A   25221.76999458 +.00000000 +00000+0 +00000+0 2 99994,2 43683   2.7943 106.5779 0004507 358.1213 270.9684  1.00271999000009,2025-08-09T18:57:32.438Z,system.exo,EXO,REAL,2,OPS1,"{'NORAD_ID': 43683, 'classification': 'U', 'COSPAR_ID': '18085A', 'BC': 0.0, 'n_ddot': 0.0, 'B_star': 0.0, 'ephemeris_type': 2, 'elset_num': 9999, 'inclination': 2.7943, 'RAAN': 106.5779, 'eccentricity': 0.0004507, 'perigee': 358.1213, 'mean_anomaly': 270.9684, 'mean_motion': 1.00271999, 'rev_num': 0, 'line1': '1 43683U 18085A   25221.76999458 +.00000000 +00000+0 +00000+0 2 99994', 'line2': '2 43683   2.7943 106.5779 0004507 358.1213 270.9684  1.00271999000009', 'epoch': datetime.datetime(2025, 8, 9, 18, 28, 47, 531712)}"
5e53eb88-c35d-4d0d-9cf1-c0bad52c1359,U//PR-EXO-ELSETS,63075,2025-08-09T19:34:27.746486Z,1.002672715350905,63075,False,0.0004712007852046308,0.04317940817578139,249.1344936834636,277.5878201435091,195.9602659986766,0.0,0.0,0.0,42165.99934894288,1436.161548981658,42185.86800094504,42146.13069694072,63075,1 63075U 25036A   25221.81559892 +.00000000 +00000+0 +00000+0 2 99995,2 63075   0.0432 249.1345 0004712 277.5878 195.9603  1.00267271000007,2025-08-09T20:03:32.713Z,system.exo,EXO,REAL,2,OPS1,"{'NORAD_ID': 63075, 'classification': 'U', 'COSPAR_ID': '25036A', 'BC': 0.0, 'n_ddot': 0.0, 'B_star': 0.0, 'ephemeris_type': 2, 'elset_num': 9999, 'inclination': 0.0432, 'RAAN': 249.1345, 'eccentricity': 0.0004712, 'perigee': 277.5878, 'mean_anomaly': 195.9603, 'mean_motion': 1.00267271, 'rev_num': 0, 'line1': '1 63075U 25036A   25221.81559892 +.00000000 +00000+0 +00000+0 2 99995', 'line2': '2 63075   0.0432 249.1345 0004712 277.5878 195.9603  1.00267271000007', 'epoch': datetime.datetime(2025, 8, 9, 19, 34, 27, 746688)}"
92296931-96b3-4381-a404-509ee0428104,U//PR-EXO-ELSETS,37951,2025-08-09T20:05:44.544996Z,1.002666481361278,37951,False,0.0003828245855791729,7.955569353440067,78.4785996870642,83.64243261783416,264.9812434974382,0.0,0.0,0.0,42166.17412432768,1436.170478188294,42182.31637246229,42150.03187619308,37951,1 37951U 11074B   25221.83732112 +.00000000 +00000+0 +00000+0 2 99996,2 37951   7.9556  78.4786 0003828  83.6424 264.9812  1.00266648000002,2025-08-09T20:51:30.358Z,system.exo,EXO,REAL,2,OPS1,"{'NORAD_ID': 37951, 'classification': 'U', 'COSPAR_ID': '11074B', 'BC': 0.0, 'n_ddot': 0.0, 'B_star': 0.0, 'ephemeris_type': 2, 'elset_num': 9999, 'inclination': 7.9556, 'RAAN': 78.4786, 'eccentricity': 0.0003828, 'perigee': 83.6424, 'mean_anomaly': 264.9812, 'mean_motion': 1.00266648, 'rev_num': 0, 'line1': '1 37951U 11074B   25221.83732112 +.00000000 +00000+0 +00000+0 2 99996', 'line2': '2 37951   7.9556  78.4786 0003828  83.6424 264.9812  1.00266648000002', 'epoch': datetime.datetime(2025, 8, 9, 20, 5, 44, 544768)}"
f194783e-db5a-4e3f-babb-c20440d2c5e0,U//PR-EXO-ELSETS,11558,2025-08-09T20:28:45.925836Z,1.002241585650492,11558,False,0.1315202565585567,5.822866825488322,9.379415125837749,74.96188352286374,326.2211720864687,0.0,0.0,0.0,42178.09071949041,1436.779336057371,47725.36403206787,36630.81740691295,11558,1 11558U 79086A   25221.85330933 +.00000000 +00000+0 +00000+0 2 99995,2 11558   5.8229   9.3794 1315202  74.9619 326.2212  1.00224158000001,2025-08-09T21:00:30.686Z,system.exo,EXO,REAL,2,OPS1,"{'NORAD_ID': 11558, 'classification': 'U', 'COSPAR_ID': '79086A', 'BC': 0.0, 'n_ddot': 0.0, 'B_star': 0.0, 'ephemeris_type': 2, 'elset_num': 9999, 'inclination': 5.8229, 'RAAN': 9.3794, 'eccentricity': 0.1315202, 'perigee': 74.9619, 'mean_anomaly': 326.2212, 'mean_motion': 1.00224158, 'rev_num': 0, 'line1': '1 11558U 79086A   25221.85330933 +.00000000 +00000+0 +00000+0 2 99995', 'line2': '2 11558   5.8229   9.3794 1315202  74.9619 326.2212  1.00224158000001', 'epoch': datetime.datetime(2025, 8, 9, 20, 28, 45, 926112)}"
3ae92591-1fd5-4fcd-8aff-f8e99bd5d84e,U//PR-EXO-ELSETS,23768,2025-08-09T16:12:54.164928Z,0.9979954234489238,23768,False,0.0005296927351974733,12.17833077658741,27.8315324921421,123.1557613429678,205.9941160479522,0.0,0.0,0.0,42297.64254034185,1442.892388247207,42320.04729431144,42275.23778637225,23768,1 23768U 96003A   25221.67562691 +.00000000 +00000+0 +00000+0 2 99997,2 23768  12.1783  27.8315 0005296 123.1558 205.9941  0.99799542000007,2025-08-09T17:12:29.957Z,system.exo,EXO,REAL,2,OPS1,"{'NORAD_ID': 23768, 'classification': 'U', 'COSPAR_ID': '96003A', 'BC': 0.0, 'n_ddot': 0.0, 'B_star': 0.0, 'ephemeris_type': 2, 'elset_num': 9999, 'inclination': 12.1783, 'RAAN': 27.8315, 'eccentricity': 0.0005296, 'perigee': 123.1558, 'mean_anomaly': 205.9941, 'mean_motion': 0.99799542, 'rev_num': 0, 'line1': '1 23768U 96003A   25221.67562691 +.00000000 +00000+0 +00000+0 2 99997', 'line2': '2 23768  12.1783  27.8315 0005296 123.1558 205.9941  0.99799542000007', 'epoch': datetime.datetime(2025, 8, 9, 16, 12, 54, 165024)}"
36e10e4d-202d-4fd2-8f5a-786c63b33b8e,U//PR-EXO-ELSETS,37606,2025-08-09T16:11:52.062348Z,1.002690988262266,37606,False,0.0001699403872892478,0.005665057331627301,109.1592213024867,53.00064740033457,127.2135786457435,0.0,0.0,0.0,42165.48706222788,1436.135376558656,42172.65268142947,42158.32144302628,37606,1 37606U 11022B   25221.67490813 +.00000000 +00000+0 +00000+0 2 99997,2 37606   0.0057 109.1592 0001699  53.0006 127.2136  1.00269098000009,2025-08-09T16:30:30.100Z,system.exo,EXO,REAL,2,OPS1,"{'NORAD_ID': 37606, 'classification': 'U', 'COSPAR_ID': '11022B', 'BC': 0.0, 'n_ddot': 0.0, 'B_star': 0.0, 'ephemeris_type': 2, 'elset_num': 9999, 'inclination': 0.0057, 'RAAN': 109.1592, 'eccentricity': 0.0001699, 'perigee': 53.0006, 'mean_anomaly': 127.2136, 'mean_motion': 1.00269098, 'rev_num': 0, 'line1': '1 37606U 11022B   25221.67490813 +.00000000 +00000+0 +00000+0 2 99997', 'line2': '2 37606   0.0057 109.1592 0001699  53.0006 127.2136  1.00269098000009', 'epoch': datetime.datetime(2025, 8, 9, 16, 11, 52, 62432)}"
b3563768-9dd1-43bc-942f-3f2b2da5b47a,U//PR-EXO-ELSETS,39017,2025-08-09T16:11:52.062348Z,1.002689666208432,39017,False,0.000258886062765935,0.01791710955894072,120.9694052783158,16.44806757156762,151.4474064856971,0.0,0.0,0.0,42165.52412589337,1436.137270113905,42176.44019241878,42154.60805936795,39017,1 39017U 12067A   25221.67490813 +.00000000 +00000+0 +00000+0 2 99995,2 39017   0.0179 120.9694 0002588  16.4481 151.4474  1.00268966000001,2025-08-09T16:33:29.494Z,system.exo,EXO,REAL,2,OPS1,"{'NORAD_ID': 39017, 'classification': 'U', 'COSPAR_ID': '12067A', 'BC': 0.0, 'n_ddot': 0.0, 'B_star': 0.0, 'ephemeris_type': 2, 'elset_num': 9999, 'inclination': 0.0179, 'RAAN': 120.9694, 'eccentricity': 0.0002588, 'perigee': 16.4481, 'mean_anomaly': 151.4474, 'mean_motion': 1.00268966, 'rev_num': 0, 'line1': '1 39017U 12067A   25221.67490813 +.00000000 +00000+0 +00000+0 2 99995', 'line2': '2 39017   0.0179 120.9694 0002588  16.4481 151.4474  1.00268966000001', 'epoch': datetime.datetime(2025, 8, 9, 16, 11, 52, 62432)}"
